NORAD_CAT_ID,OBJECT_NAME,OBJECT_TYPE,EPOCH,MEAN_MOTION,ECCENTRICITY,INCLINATION,RA_OF_ASC_NODE,ARG_OF_PERICENTER,MEAN_ANOMALY,BSTAR,MEAN_MOTION_DOT,MEAN_MOTION_DDOT,TLE_LINE0,TLE_LINE1,TLE_LINE2,SEMIMAJOR_AXIS,PERIOD,APOGEE,PERIGEE,DECAYED
52869.0,STARLINK-4266,PAYLOAD,2023-08-31 05:48:42,15.08835933,0.0001432,53.2171,190.6595,89.8619,270.2538,2.821e-05,1.61e-06,0.0,0 STARLINK-4266,1 52869U 22062AR  23243.24215574  .00000161  00000-0  28210-4 0  9991,2 52869  53.2171 190.6595 0001432  89.8619 270.2538 15.08835933 67440,6917.893,95.438,540.748,538.767,0.0
52869.0,STARLINK-4266,PAYLOAD,2023-09-01 13:36:24,15.08845811,0.0001464,53.2159,184.7134,94.835,265.2809,4.3403e-05,4.03e-06,0.0,0 STARLINK-4266,1 52869U 22062AR  23244.56694971  .00000403  00000-0  43403-4 0  9999,2 52869  53.2159 184.7134 0001464  94.8350 265.2809 15.08845811 67151,6917.863,95.437,540.74,538.715,0.0
52869.0,STARLINK-4266,PAYLOAD,2023-09-01 23:08:42,15.08871265,0.0001714,53.2153,182.9286,79.0395,281.079,-0.00020493,-3.551e-05,0.0,0 STARLINK-4266,1 52869U 22062AR  23244.96437880 -.00003551  00000-0 -20493-3 0  9999,2 52869  53.2153 182.9286 0001714  79.0395 281.0790 15.08871265 67703,6917.785,95.436,540.836,538.464,0.0
52869.0,STARLINK-4266,PAYLOAD,2023-09-03 00:34:53,15.08843882,0.0001269,53.2165,178.1693,83.6908,276.4229,-1.6235e-05,-5.46e-06,0.0,0 STARLINK-4266,1 52869U 22062AR  23246.02423115 -.00000546  00000-0 -16235-4 0  9995,2 52869  53.2165 178.1693 0001269  83.6908 276.4229 15.08843882 67867,6917.869,95.437,540.611,538.856,0.0
52869.0,STARLINK-4266,PAYLOAD,2023-09-03 05:21:02,15.08846511,0.0001239,53.2163,177.2756,91.0389,269.0745,8.72e-06,-1.49e-06,0.0,0 STARLINK-4266,1 52869U 22062AR  23246.22294803 -.00000149  00000-0  87200-5 0  9996,2 52869  53.2163 177.2756 0001239  91.0389 269.0745 15.08846511 67401,6917.86,95.437,540.583,538.868,0.0
52869.0,STARLINK-4266,PAYLOAD,2023-09-04 02:01:04,15.0883769,0.0001227,53.2173,173.413,92.8769,267.2363,-3.3435e-05,-8.2e-06,0.0,0 STARLINK-4266,1 52869U 22062AR  23247.08407528 -.00000820  00000-0 -33435-4 0  9998,2 52869  53.2173 173.4130 0001227  92.8769 267.2363 15.08837690 68027,6917.887,95.438,540.601,538.904,0.0
52869.0,STARLINK-4266,PAYLOAD,2023-09-04 03:36:27,15.0883469,0.0001163,53.2168,173.1142,91.9389,268.1736,1.3355e-05,-7.5e-07,0.0,0 STARLINK-4266,1 52869U 22062AR  23247.15031639 -.00000075  00000-0  13355-4 0  9992,2 52869  53.2168 173.1142 0001163  91.9389 268.1736 15.08834690 67545,6917.897,95.438,540.566,538.957,0.0
52869.0,STARLINK-4266,PAYLOAD,2023-09-05 01:51:50,15.08838361,0.0001232,53.2171,168.9511,102.0873,258.0258,6.5053e-05,7.48e-06,0.0,0 STARLINK-4266,1 52869U 22062AR  23248.07767341  .00000748  00000-0  65053-4 0  9998,2 52869  53.2171 168.9511 0001232 102.0873 258.0258 15.08838361 67681,6917.885,95.438,540.603,538.898,0.0
52869.0,STARLINK-4266,PAYLOAD,2023-09-05 22:31:52,15.08835039,0.0001332,53.2177,165.088,105.9463,254.1676,4.4837e-05,4.26e-06,0.0,0 STARLINK-4266,1 52869U 22062AR  23248.93879891  .00000426  00000-0  44837-4 0  9997,2 52869  53.2177 165.0880 0001332 105.9463 254.1676 15.08835039 68302,6917.896,95.438,540.682,538.839,0.0
52869.0,STARLINK-4266,PAYLOAD,2023-09-06 03:18:01,15.08836828,0.0001244,53.2174,164.1936,95.5365,264.5769,5.7354e-05,6.25e-06,0.0,0 STARLINK-4266,1 52869U 22062AR  23249.13751847  .00000625  00000-0  57354-4 0  9999,2 52869  53.2174 164.1936 0001244  95.5365 264.5769 15.08836828 67841,6917.89,95.438,540.616,538.894,0.0
52869.0,STARLINK-4266,PAYLOAD,2023-09-07 04:44:11,15.08842965,0.0001443,53.2173,159.4354,111.64,248.4746,1.9093e-05,1.6e-07,0.0,0 STARLINK-4266,1 52869U 22062AR  23250.19735643  .00000016  00000-0  19093-4 0  9995,2 52869  53.2173 159.4354 0001443 111.6400 248.4746 15.08842965 68499,6917.871,95.437,540.735,538.738,0.0
52869.0,STARLINK-4266,PAYLOAD,2023-09-07 17:27:17,15.08836409,0.0001589,53.2177,157.057,87.3941,272.7233,2.3722e-05,9e-07,0.0,0 STARLINK-4266,1 52869U 22062AR  23250.72728250  .00000090  00000-0  23722-4 0  9996,2 52869  53.2177 157.0570 0001589  87.3941 272.7233 15.08836409 68573,6917.891,95.438,540.856,538.657,0.0
52869.0,STARLINK-4266,PAYLOAD,2023-09-08 02:59:35,15.08840562,0.0001408,53.2177,155.2724,84.0006,276.1147,6.296e-05,7.14e-06,0.0,0 STARLINK-4266,1 52869U 22062AR  23251.12471961  .00000714  00000-0  62960-4 0  9995,2 52869  53.2177 155.2724 0001408  84.0006 276.1147 15.08840562 68140,6917.879,95.438,540.718,538.77,0.0
52869.0,STARLINK-4266,PAYLOAD,2023-09-08 23:39:36,15.08839132,0.0001436,53.2173,151.4068,89.2896,270.8261,6.2246e-05,7.03e-06,0.0,0 STARLINK-4266,1 52869U 22062AR  23251.98584012  .00000703  00000-0  62246-4 0  9996,2 52869  53.2173 151.4068 0001436  89.2896 270.8261 15.08839132 68767,6917.883,95.438,540.741,538.755,0.0
52869.0,STARLINK-4266,PAYLOAD,2023-09-09 23:30:23,15.08840968,0.0001472,53.2174,146.9479,84.2174,275.8986,4.5625e-05,4.38e-06,0.0,0 STARLINK-4266,1 52869U 22062AR  23252.97944002  .00000438  00000-0  45625-4 0  9992,2 52869  53.2174 146.9479 0001472  84.2174 275.8986 15.08840968 68428,6917.877,95.437,540.761,538.724,0.0
52869.0,STARLINK-4266,PAYLOAD,2023-09-10 16:59:38,15.08839873,0.0001493,53.2168,143.6785,81.7653,278.3509,-5.5054e-06,-3.76e-06,0.0,0 STARLINK-4266,1 52869U 22062AR  23253.70808274 -.00000376  00000-0 -55054-5 0  9995,2 52869  53.2168 143.6785 0001493  81.7653 278.3509 15.08839873 69021,6917.881,95.438,540.779,538.713,0.0
52869.0,STARLINK-4266,PAYLOAD,2023-09-10 23:21:10,15.08840527,0.0001326,53.2169,142.4868,88.9201,271.1943,5.3766e-06,-2.02e-06,0.0,0 STARLINK-4266,1 52869U 22062AR  23253.97304133 -.00000202  00000-0  53766-5 0  9994,2 52869  53.2169 142.4868 0001326  88.9201 271.1943 15.08840527 68574,6917.879,95.438,540.661,538.826,0.0
52869.0,STARLINK-4266,PAYLOAD,2023-09-12 02:22:43,15.08849521,0.0001325,53.2165,137.4297,88.9918,271.1226,7.4183e-05,8.93e-06,0.0,0 STARLINK-4266,1 52869U 22062AR  23255.09911326  .00000893  00000-0  74183-4 0  9997,2 52869  53.2165 137.4297 0001325  88.9918 271.1226 15.08849521 69235,6917.851,95.437,540.633,538.8,0.0
52869.0,STARLINK-4266,PAYLOAD,2023-09-12 16:41:12,15.08834376,0.0001319,53.2158,134.7531,93.1814,266.9329,1.2277e-05,-9.3e-07,0.0,0 STARLINK-4266,1 52869U 22062AR  23255.69528616 -.00000093  00000-0  12277-4 0  9998,2 52869  53.2158 134.7531 0001319  93.1814 266.9329 15.08834376 69322,6917.898,95.438,540.675,538.85,0.0
52869.0,STARLINK-4266,PAYLOAD,2023-09-12 21:27:22,15.08836544,0.0001236,53.2162,133.861,92.3319,267.7814,3.1856e-05,2.19e-06,0.0,0 STARLINK-4266,1 52869U 22062AR  23255.89400508  .00000219  00000-0  31856-4 0  9992,2 52869  53.2162 133.8610 0001236  92.3319 267.7814 15.08836544 68869,6917.891,95.438,540.611,538.901,0.0
52869.0,STARLINK-4266,PAYLOAD,2023-09-12 23:02:44,15.08839686,0.0001207,53.2165,133.5652,87.3642,272.7488,6.5486e-05,7.55e-06,0.0,0 STARLINK-4266,1 52869U 22062AR  23255.96024255  .00000755  00000-0  65486-4 0  9992,2 52869  53.2165 133.5652 0001207  87.3642 272.7488 15.08839686 69365,6917.881,95.438,540.581,538.911,0.0
52869.0,STARLINK-4266,PAYLOAD,2023-09-13 21:18:07,15.08853469,0.0001196,53.2165,129.4018,90.8289,269.284,8.9113e-05,1.131e-05,0.0,0 STARLINK-4266,1 52869U 22062AR  23256.88759154  .00001131  00000-0  89113-4 0  9999,2 52869  53.2165 129.4018 0001196  90.8289 269.2840 15.08853469 69018,6917.839,95.437,540.532,538.877,0.0
52869.0,STARLINK-4266,PAYLOAD,2023-09-14 02:04:16,15.08861943,0.0001204,53.2168,128.5099,92.0968,268.0162,0.00018073,2.591e-05,0.0,0 STARLINK-4266,1 52869U 22062AR  23257.08630412  .00002591  00000-0  18073-3 0  9994,2 52869  53.2168 128.5099 0001204  92.0968 268.0162 15.08861943 69535,6917.813,95.436,540.511,538.845,0.0
52869.0,STARLINK-4266,PAYLOAD,2023-09-14 21:08:56,15.08827443,0.0001282,53.2151,124.9384,110.2832,249.8298,-0.00012513,-2.278e-05,0.0,0 STARLINK-4266,1 52869U 22062AR  23257.88120567 -.00002278  00000-0 -12513-3 0  9994,2 52869  53.2151 124.9384 0001282 110.2832 249.8298 15.08827443 69166,6917.919,95.438,540.671,538.897,0.0
52869.0,STARLINK-4266,PAYLOAD,2023-09-15 00:19:42,15.08829555,0.0001222,53.2157,124.3463,94.1355,265.9777,-7.07e-05,-1.413e-05,0.0,0 STARLINK-4266,1 52869U 22062AR  23258.01368729 -.00001413  00000-0 -70700-4 0  9997,2 52869  53.2157 124.3463 0001222  94.1355 265.9777 15.08829555 69671,6917.912,95.438,540.623,538.932,0.0
52869.0,STARLINK-4266,PAYLOAD,2023-09-16 00:10:28,15.08853951,0.0001302,53.2162,119.885,80.0293,280.0846,0.00024728,3.651e-05,0.0,0 STARLINK-4266,1 52869U 22062AR  23259.00727797  .00003651  00000-0  24728-3 0  9993,2 52869  53.2162 119.8850 0001302  80.0293 280.0846 15.08853951 69829,6917.838,95.437,540.603,538.802,0.0
52869.0,STARLINK-4266,PAYLOAD,2023-09-16 14:28:58,15.08835365,0.0001643,53.2154,117.2098,77.4179,282.6997,0.00023219,3.409e-05,0.0,0 STARLINK-4266,1 52869U 22062AR  23259.60345192  .00003409  00000-0  23219-3 0  9999,2 52869  53.2154 117.2098 0001643  77.4179 282.6997 15.08835365 69911,6917.895,95.438,540.896,538.623,0.0
52869.0,STARLINK-4266,PAYLOAD,2023-09-17 00:01:16,15.0884528,0.0001393,53.2156,115.4254,77.3684,282.7464,0.00036731,5.563e-05,0.0,0 STARLINK-4266,1 52869U 22062AR  23260.00088982  .00005563  00000-0  36731-3 0  9992,2 52869  53.2156 115.4254 0001393  77.3684 282.7464 15.08845280 69972,6917.864,95.437,540.693,538.766,0.0
52869.0,STARLINK-4266,PAYLOAD,2023-09-17 23:52:03,15.08858841,0.0001473,53.2156,110.9638,81.0051,279.1107,0.0007717,0.00012021,0.0,0 STARLINK-4266,1 52869U 22062AR  23260.99448602  .00012021  00000-0  77170-3 0  9998,2 52869  53.2156 110.9638 0001473  81.0051 279.1107 15.08858841 69631,6917.823,95.436,540.707,538.669,0.0
52869.0,STARLINK-4266,PAYLOAD,2023-09-18 17:21:18,15.08843728,0.0001667,53.2164,107.6882,94.2296,265.8886,0.00014208,1.974e-05,0.0,0 STARLINK-4266,1 52869U 22062AR  23261.72312663  .00001974  00000-0  14208-3 0  9995,2 52869  53.2164 107.6882 0001667  94.2296 265.8886 15.08843728 70238,6917.869,95.437,540.887,538.581,0.0
